{
    "links": {
        "self": "http://www.neowsapp.com/rest/v1/neo/3715500?api_key=iIulBulltgU6a56xZRHN4H3l9WmuAYTsLGpBGhQ2"
    },
    "id": "3715500",
    "neo_reference_id": "3715500",
    "name": "(2015 GV)",
    "designation": "2015 GV",
    "nasa_jpl_url": "http://ssd.jpl.nasa.gov/sbdb.cgi?sstr=3715500",
    "absolute_magnitude_h": 24.9,
    "estimated_diameter": {
        "kilometers": {
            "estimated_diameter_min": 0.0278326768,
            "estimated_diameter_max": 0.0622357573
        },
        "meters": {
            "estimated_diameter_min": 27.8326768072,
            "estimated_diameter_max": 62.2357573367
        },
        "miles": {
            "estimated_diameter_min": 0.0172944182,
            "estimated_diameter_max": 0.0386714948
        },
        "feet": {
            "estimated_diameter_min": 91.3145593761,
            "estimated_diameter_max": 204.1855621004
        }
    },
    "is_potentially_hazardous_asteroid": false,
    "close_approach_data": [
        {
            "close_approach_date": "1904-04-19",
            "close_approach_date_full": "1904-Apr-19 10:42",
            "epoch_date_close_approach": -2073388680000,
            "relative_velocity": {
                "kilometers_per_second": "19.7205921641",
                "kilometers_per_hour": "70994.1317908975",
                "miles_per_hour": "44112.9926119607"
            },
            "miss_distance": {
                "astronomical": "0.3486553435",
                "lunar": "135.6269286215",
                "kilometers": "52158096.751718345",
                "miles": "32409538.471249361"
            },
            "orbiting_body": "Earth"
        },
        {
            "close_approach_date": "2008-04-23",
            "close_approach_date_full": "2008-Apr-23 02:26",
            "epoch_date_close_approach": 1208917560000,
            "relative_velocity": {
                "kilometers_per_second": "21.3902133262",
                "kilometers_per_hour": "77004.7679744622",
                "miles_per_hour": "47847.7681894651"
            },
            "miss_distance": {
                "astronomical": "0.4152666514",
                "lunar": "161.5387273946",
                "kilometers": "62123006.531472518",
                "miles": "38601446.2858080284"
            },
            "orbiting_body": "Earth"
        },
        {
            "close_approach_date": "2014-10-16",
            "close_approach_date_full": "2014-Oct-16 02:10",
            "epoch_date_close_approach": 1413425400000,
            "relative_velocity": {
                "kilometers_per_second": "10.5945538083",
                "kilometers_per_hour": "38140.3937098501",
                "miles_per_hour": "23698.9574137677"
            },
            "miss_distance": {
                "astronomical": "0.3395030056",
                "lunar": "132.0666691784",
                "kilometers": "50788926.496358072",
                "miles": "31558775.5249705136"
            },
            "orbiting_body": "Earth"
        },
        {
            "close_approach_date": "2015-04-04",
            "close_approach_date_full": "2015-Apr-04 07:34",
            "epoch_date_close_approach": 1428132840000,
            "relative_velocity": {
                "kilometers_per_second": "12.281361626",
                "kilometers_per_hour": "44212.9018537102",
                "miles_per_hour": "27472.1778212678"
            },
            "miss_distance": {
                "astronomical": "0.024406986",
                "lunar": "9.494317554",
                "kilometers": "3651233.11871982",
                "miles": "2268771.055660716"
            },
            "orbiting_body": "Earth"
        },
        {
            "close_approach_date": "2021-11-03",
            "close_approach_date_full": "2021-Nov-03 00:43",
            "epoch_date_close_approach": 1635900180000,
            "relative_velocity": {
                "kilometers_per_second": "12.0834266727",
                "kilometers_per_hour": "43500.3360217808",
                "miles_per_hour": "27029.4171242004"
            },
            "miss_distance": {
                "astronomical": "0.2114794165",
                "lunar": "82.2654930185",
                "kilometers": "31636870.257242855",
                "miles": "19658239.613167199"
            },
            "orbiting_body": "Earth"
        }
    ],
    "orbital_data": {
        "orbit_id": "6",
        "orbit_determination_date": "2017-04-06 08:34:32",
        "first_observation_date": "2015-04-10",
        "last_observation_date": "2015-04-23",
        "data_arc_in_days": 13,
        "observations_used": 28,
        "orbit_uncertainty": "8",
        "minimum_orbit_intersection": ".0234364",
        "jupiter_tisserand_invariant": "5.068",
        "epoch_osculation": "2457124.5",
        "eccentricity": ".2814202994857339",
        "semi_major_axis": "1.244454539494398",
        "inclination": "19.16225573494623",
        "ascending_node_longitude": "195.7302249648746",
        "orbital_period": "507.0689074971279",
        "perihelion_distance": ".8942397702935034",
        "perihelion_argument": "293.9299457870421",
        "aphelion_distance": "1.594669308695292",
        "perihelion_time": "2457063.794675331204",
        "mean_anomaly": "43.09851493091271",
        "mean_motion": ".7099626789915907",
        "equinox": "J2000",
        "orbit_class": {
            "orbit_class_type": "APO",
            "orbit_class_description": "Near-Earth asteroid orbits which cross the Earth’s orbit similar to that of 1862 Apollo",
            "orbit_class_range": "a (semi-major axis) > 1.0 AU; q (perihelion) < 1.017 AU"
        }
    },
    "is_sentry_object": false
}